[{"OBJECT_NAME":"STARLINK-6185","OBJECT_ID":"2023-083AB","EPOCH":"2026-03-09T22:00:01.999584","MEAN_MOTION":15.14323415,"ECCENTRICITY":0.00018993,"INCLINATION":43.0006,"RA_OF_ASC_NODE":79.6238,"ARG_OF_PERICENTER":290.3742,"MEAN_ANOMALY":128.6486,"EPHEMERIS_TYPE":0,"CLASSIFICATION_TYPE":"U","NORAD_CAT_ID":56901,"ELEMENT_SET_NO":999,"REV_AT_EPOCH":572,"BSTAR":0.005271535,"MEAN_MOTION_DOT":0.00099461,"MEAN_MOTION_DDOT":0},{"OBJECT_NAME":"SL-14 R\/B","OBJECT_ID":"2009-003B","EPOCH":"2026-03-09T22:56:16.948608","MEAN_MOTION":15.18255832,"ECCENTRICITY":0.00217716,"INCLINATION":82.3842,"RA_OF_ASC_NODE":305.4853,"ARG_OF_PERICENTER":18.7466,"MEAN_ANOMALY":341.4564,"EPHEMERIS_TYPE":0,"CLASSIFICATION_TYPE":"U","NORAD_CAT_ID":33505,"ELEMENT_SET_NO":999,"REV_AT_EPOCH":94237,"BSTAR":9.9679257e-5,"MEAN_MOTION_DOT":2.085e-5,"MEAN_MOTION_DDOT":0}]
